[{"CCSDS_OMM_VERS":"2.0","COMMENT":"GENERATED VIA SPACE-TRACK.ORG API","CREATION_DATE":"2021-02-01T07:06:10","ORIGINATOR":"18 SPCS","OBJECT_NAME":"ONEWEB-0135","OBJECT_ID":"2020-100Z","CENTER_NAME":"EARTH","REF_FRAME":"TEME","TIME_SYSTEM":"UTC","MEAN_ELEMENT_THEORY":"SGP4","EPOCH":"2021-02-01T06:00:00.999648","MEAN_MOTION":"14.76312164","ECCENTRICITY":"0.00153270","INCLINATION":"87.5229","RA_OF_ASC_NODE":"24.2355","ARG_OF_PERICENTER":"93.0958","MEAN_ANOMALY":"54.3696","EPHEMERIS_TYPE":"0","CLASSIFICATION_TYPE":"U","NORAD_CAT_ID":"47281","ELEMENT_SET_NO":"999","REV_AT_EPOCH":"681","BSTAR":"-0.22090000000000","MEAN_MOTION_DOT":"-0.01418205","MEAN_MOTION_DDOT":"0.0000000000000","SEMIMAJOR_AXIS":"7019.126","PERIOD":"97.540","APOAPSIS":"651.749","PERIAPSIS":"630.232","OBJECT_TYPE":"PAYLOAD","RCS_SIZE":"MEDIUM","COUNTRY_CODE":"UK","LAUNCH_DATE":"2020-12-18","SITE":"VOSTO","DECAY_DATE":null,"FILE":"2944738","GP_ID":"170775447","TLE_LINE0":"0 ONEWEB-0135","TLE_LINE1":"1 47281U 20100Z   21032.25001157 -.01418205  00000-0 -22090+0 0  9999","TLE_LINE2":"2 47281  87.5229  24.2355 0015327  93.0958  54.3696 14.76312164  6813"},{"CCSDS_OMM_VERS":"2.0","COMMENT":"GENERATED VIA SPACE-TRACK.ORG API","CREATION_DATE":"2021-02-01T18:51:17","ORIGINATOR":"18 SPCS","OBJECT_NAME":"ONEWEB-0135","OBJECT_ID":"2020-100Z","CENTER_NAME":"EARTH","REF_FRAME":"TEME","TIME_SYSTEM":"UTC","MEAN_ELEMENT_THEORY":"SGP4","EPOCH":"2021-02-01T14:00:01.999872","MEAN_MOTION":"14.75338939","ECCENTRICITY":"0.00153950","INCLINATION":"87.5247","RA_OF_ASC_NODE":"24.1336","ARG_OF_PERICENTER":"92.1583","MEAN_ANOMALY":"25.1509","EPHEMERIS_TYPE":"0","CLASSIFICATION_TYPE":"U","NORAD_CAT_ID":"47281","ELEMENT_SET_NO":"999","REV_AT_EPOCH":"178","BSTAR":"-0.23975000000000","MEAN_MOTION_DOT":"-0.01497901","MEAN_MOTION_DDOT":"0.0000000000000","SEMIMAJOR_AXIS":"7022.212","PERIOD":"97.604","APOAPSIS":"654.888","PERIAPSIS":"633.266","OBJECT_TYPE":"PAYLOAD","RCS_SIZE":"MEDIUM","COUNTRY_CODE":"UK","LAUNCH_DATE":"2020-12-18","SITE":"VOSTO","DECAY_DATE":null,"FILE":"2945362","GP_ID":"170810752","TLE_LINE0":"0 ONEWEB-0135","TLE_LINE1":"1 47281U 20100Z   21032.58335648 -.01497901  00000-0 -23975+0 0  9993","TLE_LINE2":"2 47281  87.5247  24.1336 0015395  92.1583  25.1509 14.75338939  1787"},{"CCSDS_OMM_VERS":"2.0","COMMENT":"GENERATED VIA SPACE-TRACK.ORG API","CREATION_DATE":"2021-02-01T22:26:10","ORIGINATOR":"18 SPCS","OBJECT_NAME":"ONEWEB-0135","OBJECT_ID":"2020-100Z","CENTER_NAME":"EARTH","REF_FRAME":"TEME","TIME_SYSTEM":"UTC","MEAN_ELEMENT_THEORY":"SGP4","EPOCH":"2021-02-01T20:00:06.999840","MEAN_MOTION":"14.74500852","ECCENTRICITY":"0.00151590","INCLINATION":"87.5261","RA_OF_ASC_NODE":"24.0574","ARG_OF_PERICENTER":"92.0417","MEAN_ANOMALY":"272.1428","EPHEMERIS_TYPE":"0","CLASSIFICATION_TYPE":"U","NORAD_CAT_ID":"47281","ELEMENT_SET_NO":"999","REV_AT_EPOCH":"690","BSTAR":"-0.22375000000000","MEAN_MOTION_DOT":"-0.01379658","MEAN_MOTION_DDOT":"0.0000000000000","SEMIMAJOR_AXIS":"7024.873","PERIOD":"97.660","APOAPSIS":"657.387","PERIAPSIS":"636.089","OBJECT_TYPE":"PAYLOAD","RCS_SIZE":"MEDIUM","COUNTRY_CODE":"UK","LAUNCH_DATE":"2020-12-18","SITE":"VOSTO","DECAY_DATE":null,"FILE":"2945416","GP_ID":"170812352","TLE_LINE0":"0 ONEWEB-0135","TLE_LINE1":"1 47281U 20100Z   21032.83341435 -.01379658  00000-0 -22375+0 0  9993","TLE_LINE2":"2 47281  87.5261  24.0574 0015159  92.0417 272.1428 14.74500852  6906"},{"CCSDS_OMM_VERS":"2.0","COMMENT":"GENERATED VIA SPACE-TRACK.ORG API","CREATION_DATE":"2021-02-02T06:26:09","ORIGINATOR":"18 SPCS","OBJECT_NAME":"ONEWEB-0135","OBJECT_ID":"2020-100Z","CENTER_NAME":"EARTH","REF_FRAME":"TEME","TIME_SYSTEM":"UTC","MEAN_ELEMENT_THEORY":"SGP4","EPOCH":"2021-02-02T04:00:00.999936","MEAN_MOTION":"14.73540302","ECCENTRICITY":"0.00149960","INCLINATION":"87.5278","RA_OF_ASC_NODE":"23.9543","ARG_OF_PERICENTER":"91.0616","MEAN_ANOMALY":"240.3901","EPHEMERIS_TYPE":"0","CLASSIFICATION_TYPE":"U","NORAD_CAT_ID":"47281","ELEMENT_SET_NO":"999","REV_AT_EPOCH":"695","BSTAR":"-0.24836000000000","MEAN_MOTION_DOT":"-0.01488460","MEAN_MOTION_DDOT":"0.0000000000000","SEMIMAJOR_AXIS":"7027.925","PERIOD":"97.723","APOAPSIS":"660.329","PERIAPSIS":"639.251","OBJECT_TYPE":"PAYLOAD","RCS_SIZE":"MEDIUM","COUNTRY_CODE":"UK","LAUNCH_DATE":"2020-12-18","SITE":"VOSTO","DECAY_DATE":null,"FILE":"2945560","GP_ID":"170815316","TLE_LINE0":"0 ONEWEB-0135","TLE_LINE1":"1 47281U 20100Z   21033.16667824 -.01488460  00000-0 -24836+0 0  9999","TLE_LINE2":"2 47281  87.5278  23.9543 0014996  91.0616 240.3901 14.73540302  6957"},{"CCSDS_OMM_VERS":"2.0","COMMENT":"GENERATED VIA SPACE-TRACK.ORG API","CREATION_DATE":"2021-02-02T21:10:33","ORIGINATOR":"18 SPCS","OBJECT_NAME":"ONEWEB-0135","OBJECT_ID":"2020-100Z","CENTER_NAME":"EARTH","REF_FRAME":"TEME","TIME_SYSTEM":"UTC","MEAN_ELEMENT_THEORY":"SGP4","EPOCH":"2021-02-02T14:00:01.000224","MEAN_MOTION":"14.72271356","ECCENTRICITY":"0.00151740","INCLINATION":"87.5300","RA_OF_ASC_NODE":"23.8277","ARG_OF_PERICENTER":"89.2208","MEAN_ANOMALY":"290.0694","EPHEMERIS_TYPE":"0","CLASSIFICATION_TYPE":"U","NORAD_CAT_ID":"47281","ELEMENT_SET_NO":"999","REV_AT_EPOCH":"175","BSTAR":"-0.25757000000000","MEAN_MOTION_DOT":"-0.01498171","MEAN_MOTION_DDOT":"0.0000000000000","SEMIMAJOR_AXIS":"7031.963","PERIOD":"97.808","APOAPSIS":"664.499","PERIAPSIS":"643.158","OBJECT_TYPE":"PAYLOAD","RCS_SIZE":"MEDIUM","COUNTRY_CODE":"UK","LAUNCH_DATE":"2020-12-18","SITE":"VOSTO","DECAY_DATE":null,"FILE":"2946041","GP_ID":"170869918","TLE_LINE0":"0 ONEWEB-0135","TLE_LINE1":"1 47281U 20100Z   21033.58334491 -.01498171  00000-0 -25757+0 0  9999","TLE_LINE2":"2 47281  87.5300  23.8277 0015174  89.2208 290.0694 14.72271356  1754"},{"CCSDS_OMM_VERS":"2.0","COMMENT":"GENERATED VIA SPACE-TRACK.ORG API","CREATION_DATE":"2021-02-02T22:26:09","ORIGINATOR":"18 SPCS","OBJECT_NAME":"ONEWEB-0135","OBJECT_ID":"2020-100Z","CENTER_NAME":"EARTH","REF_FRAME":"TEME","TIME_SYSTEM":"UTC","MEAN_ELEMENT_THEORY":"SGP4","EPOCH":"2021-02-02T20:00:01.000224","MEAN_MOTION":"14.71442783","ECCENTRICITY":"0.00153020","INCLINATION":"87.5312","RA_OF_ASC_NODE":"23.7520","ARG_OF_PERICENTER":"89.7054","MEAN_ANOMALY":"173.3912","EPHEMERIS_TYPE":"0","CLASSIFICATION_TYPE":"U","NORAD_CAT_ID":"47281","ELEMENT_SET_NO":"999","REV_AT_EPOCH":"704","BSTAR":"-0.24320000000000","MEAN_MOTION_DOT":"-0.01395757","MEAN_MOTION_DDOT":"0.0000000000000","SEMIMAJOR_AXIS":"7034.603","PERIOD":"97.863","APOAPSIS":"667.232","PERIAPSIS":"645.704","OBJECT_TYPE":"PAYLOAD","RCS_SIZE":"MEDIUM","COUNTRY_CODE":"UK","LAUNCH_DATE":"2020-12-18","SITE":"VOSTO","DECAY_DATE":null,"FILE":"2946264","GP_ID":"170872558","TLE_LINE0":"0 ONEWEB-0135","TLE_LINE1":"1 47281U 20100Z   21033.83334491 -.01395757  00000-0 -24320+0 0  9998","TLE_LINE2":"2 47281  87.5312  23.7520 0015302  89.7054 173.3912 14.71442783  7041"},{"CCSDS_OMM_VERS":"2.0","COMMENT":"GENERATED VIA SPACE-TRACK.ORG API","CREATION_DATE":"2021-02-03T03:12:28","ORIGINATOR":"18 SPCS","OBJECT_NAME":"ONEWEB-0135","OBJECT_ID":"2020-100Z","CENTER_NAME":"EARTH","REF_FRAME":"TEME","TIME_SYSTEM":"UTC","MEAN_ELEMENT_THEORY":"SGP4","EPOCH":"2021-02-02T22:00:00.999936","MEAN_MOTION":"14.71191009","ECCENTRICITY":"0.00152160","INCLINATION":"87.5316","RA_OF_ASC_NODE":"23.7267","ARG_OF_PERICENTER":"89.1044","MEAN_ANOMALY":"255.0978","EPHEMERIS_TYPE":"0","CLASSIFICATION_TYPE":"U","NORAD_CAT_ID":"47281","ELEMENT_SET_NO":"999","REV_AT_EPOCH":"180","BSTAR":"-0.24407000000000","MEAN_MOTION_DOT":"-0.01392837","MEAN_MOTION_DDOT":"0.0000000000000","SEMIMAJOR_AXIS":"7035.405","PERIOD":"97.880","APOAPSIS":"667.976","PERIAPSIS":"646.565","OBJECT_TYPE":"PAYLOAD","RCS_SIZE":"MEDIUM","COUNTRY_CODE":"UK","LAUNCH_DATE":"2020-12-18","SITE":"VOSTO","DECAY_DATE":null,"FILE":"2946487","GP_ID":"170897774","TLE_LINE0":"0 ONEWEB-0135","TLE_LINE1":"1 47281U 20100Z   21033.91667824 -.01392837  00000-0 -24407+0 0  9998","TLE_LINE2":"2 47281  87.5316  23.7267 0015216  89.1044 255.0978 14.71191009  1800"},{"CCSDS_OMM_VERS":"2.0","COMMENT":"GENERATED VIA SPACE-TRACK.ORG API","CREATION_DATE":"2021-02-03T14:36:10","ORIGINATOR":"18 SPCS","OBJECT_NAME":"ONEWEB-0135","OBJECT_ID":"2020-100Z","CENTER_NAME":"EARTH","REF_FRAME":"TEME","TIME_SYSTEM":"UTC","MEAN_ELEMENT_THEORY":"SGP4","EPOCH":"2021-02-03T12:00:00.999648","MEAN_MOTION":"14.69518925","ECCENTRICITY":"0.00152190","INCLINATION":"87.5339","RA_OF_ASC_NODE":"23.5486","ARG_OF_PERICENTER":"87.4157","MEAN_ANOMALY":"102.4135","EPHEMERIS_TYPE":"0","CLASSIFICATION_TYPE":"U","NORAD_CAT_ID":"47281","ELEMENT_SET_NO":"999","REV_AT_EPOCH":"714","BSTAR":"-0.21269000000000","MEAN_MOTION_DOT":"-0.01169214","MEAN_MOTION_DDOT":"0.0000000000000","SEMIMAJOR_AXIS":"7040.741","PERIOD":"97.991","APOAPSIS":"673.322","PERIAPSIS":"651.891","OBJECT_TYPE":"PAYLOAD","RCS_SIZE":"MEDIUM","COUNTRY_CODE":"UK","LAUNCH_DATE":"2020-12-18","SITE":"VOSTO","DECAY_DATE":null,"FILE":"2948239","GP_ID":"170940955","TLE_LINE0":"0 ONEWEB-0135","TLE_LINE1":"1 47281U 20100Z   21034.50001157 -.01169214  00000-0 -21269+0 0  9999","TLE_LINE2":"2 47281  87.5339  23.5486 0015219  87.4157 102.4135 14.69518925  7145"}]